{"updated_at":"2026-06-13T18:15:51.214023Z","count":200,"data":[{"NORAD_CAT_ID":"69238","OBJECT_NAME":"STARLINK-37665","OBJECT_ID":"2026-117A","EPOCH":"2026-06-13T13:57:02.923776","TLE_LINE1":"1 69238U 26117A   26164.58128384  .00207350  00000-0  97541-3 0  9999","TLE_LINE2":"2 69238  53.1590 261.7225 0001078  52.2342 307.8779 15.82030611  2406"},{"NORAD_CAT_ID":"69239","OBJECT_NAME":"STARLINK-37558","OBJECT_ID":"2026-117B","EPOCH":"2026-06-13T13:55:40.918944","TLE_LINE1":"1 69239U 26117B   26164.58033471  .00184315  00000-0  87009-3 0  9995","TLE_LINE2":"2 69239  53.1588 261.7161 0001115  37.0616 323.0484 15.82021976  2407"},{"NORAD_CAT_ID":"69240","OBJECT_NAME":"STARLINK-37680","OBJECT_ID":"2026-117C","EPOCH":"2026-06-13T13:53:36.439872","TLE_LINE1":"1 69240U 26117C   26164.57889398  .00204028  00000-0  96009-3 0  9997","TLE_LINE2":"2 69240  53.1593 261.7067 0001203  52.7815 307.3318 15.82033029  2406"},{"NORAD_CAT_ID":"69241","OBJECT_NAME":"STARLINK-37742","OBJECT_ID":"2026-117D","EPOCH":"2026-06-13T13:51:02.562336","TLE_LINE1":"1 69241U 26117D   26164.57711299  .00166395  00000-0  78786-3 0  9998","TLE_LINE2":"2 69241  53.1593 261.6952 0001306  55.7352 304.3795 15.82010879  2406"},{"NORAD_CAT_ID":"69242","OBJECT_NAME":"STARLINK-37718","OBJECT_ID":"2026-117E","EPOCH":"2026-06-13T13:49:06.597984","TLE_LINE1":"1 69242U 26117E   26164.57577081  .00132187  00000-0  62775-3 0  9991","TLE_LINE2":"2 69242  53.1591 261.6859 0002650   9.2853 350.8219 15.82053518  2408"},{"NORAD_CAT_ID":"69243","OBJECT_NAME":"STARLINK-37735","OBJECT_ID":"2026-117F","EPOCH":"2026-06-13T13:49:06.550464","TLE_LINE1":"1 69243U 26117F   26164.57577026  .00265517  00000-0  12387-2 0  9998","TLE_LINE2":"2 69243  53.1589 261.6852 0000555  80.5518 279.5568 15.82046825  2408"},{"NORAD_CAT_ID":"69244","OBJECT_NAME":"STARLINK-37757","OBJECT_ID":"2026-117G","EPOCH":"2026-06-13T13:45:39.532608","TLE_LINE1":"1 69244U 26117G   26164.57337422  .00261575  00000-0  12204-2 0  9991","TLE_LINE2":"2 69244  53.1588 261.6687 0001715  37.5817 322.5326 15.82056342  2403"},{"NORAD_CAT_ID":"69245","OBJECT_NAME":"STARLINK-37767","OBJECT_ID":"2026-117H","EPOCH":"2026-06-13T13:39:30.909600","TLE_LINE1":"1 69245U 26117H   26164.56910775  .00173224  00000-0  81869-3 0  9996","TLE_LINE2":"2 69245  53.1588 261.6402 0001181 116.7363 243.3781 15.82029691  2404"},{"NORAD_CAT_ID":"69246","OBJECT_NAME":"STARLINK-35759","OBJECT_ID":"2026-117J","EPOCH":"2026-06-13T13:38:31.692768","TLE_LINE1":"1 69246U 26117J   26164.56842237  .00244948  00000-0  11453-2 0  9997","TLE_LINE2":"2 69246  53.1586 261.6358 0001435  37.6482 322.4641 15.82055168  2400"},{"NORAD_CAT_ID":"69247","OBJECT_NAME":"STARLINK-37238","OBJECT_ID":"2026-117K","EPOCH":"2026-06-13T13:32:08.008512","TLE_LINE1":"1 69247U 26117K   26164.56398158  .00278539  00000-0  12954-2 0  9996","TLE_LINE2":"2 69247  53.1585 261.6040 0000917  87.0635 273.0494 15.82079483  2404"},{"NORAD_CAT_ID":"69248","OBJECT_NAME":"STARLINK-37412","OBJECT_ID":"2026-117L","EPOCH":"2026-06-13T13:27:17.081568","TLE_LINE1":"1 69248U 26117L   26164.56061437  .00312145  00000-0  14461-2 0  9991","TLE_LINE2":"2 69248  53.1587 261.5815 0001439  68.9817 291.1360 15.82072426  2409"},{"NORAD_CAT_ID":"69218","OBJECT_NAME":"STARLINK-37724","OBJECT_ID":"2026-115H","EPOCH":"2026-06-13T14:00:01.999872","TLE_LINE1":"1 69218U 26115H   26164.58335648 -.02581815  00000-0 -22616-1 0  9992","TLE_LINE2":"2 69218  97.2837 181.8594 0001730  86.3907  30.6857 15.72124274  4114"},{"NORAD_CAT_ID":"69219","OBJECT_NAME":"STARLINK-37758","OBJECT_ID":"2026-115J","EPOCH":"2026-06-13T14:00:01.999872","TLE_LINE1":"1 69219U 26115J   26164.58335648 -.02509652  00000-0 -21879-1 0  9992","TLE_LINE2":"2 69219  97.2837 181.8666 0001761  89.3345  45.2132 15.72137936  4115"},{"NORAD_CAT_ID":"69220","OBJECT_NAME":"STARLINK-37201","OBJECT_ID":"2026-115K","EPOCH":"2026-06-13T14:00:01.999872","TLE_LINE1":"1 69220U 26115K   26164.58335648 -.02592765  00000-0 -22568-1 0  9997","TLE_LINE2":"2 69220  97.2836 181.8649 0001720  89.3819  39.9222 15.72288956  4117"},{"NORAD_CAT_ID":"69221","OBJECT_NAME":"STARLINK-37728","OBJECT_ID":"2026-115L","EPOCH":"2026-06-13T14:00:01.999872","TLE_LINE1":"1 69221U 26115L   26164.58335648 -.02613529  00000-0 -24463-1 0  9996","TLE_LINE2":"2 69221  97.2834 181.8659 0001726  85.5724  45.6288 15.70602999  4117"},{"NORAD_CAT_ID":"69222","OBJECT_NAME":"STARLINK-37760","OBJECT_ID":"2026-115M","EPOCH":"2026-06-13T14:00:01.999872","TLE_LINE1":"1 69222U 26115M   26164.58335648 -.02614795  00000-0 -21226-1 0  9997","TLE_LINE2":"2 69222  97.2834 181.8680 0001744  91.6929  44.1284 15.73940245  4119"},{"NORAD_CAT_ID":"69223","OBJECT_NAME":"STARLINK-37759","OBJECT_ID":"2026-115N","EPOCH":"2026-06-13T14:00:01.999872","TLE_LINE1":"1 69223U 26115N   26164.58335648 -.02420484  00000-0 -34137-1 0  9993","TLE_LINE2":"2 69223  97.2846 181.8247 0001259  99.1620 289.9260 15.60120225  4111"},{"NORAD_CAT_ID":"69224","OBJECT_NAME":"STARLINK-37725","OBJECT_ID":"2026-115P","EPOCH":"2026-06-13T14:00:01.999872","TLE_LINE1":"1 69224U 26115P   26164.58335648 -.02543350  00000-0 -34131-1 0  9996","TLE_LINE2":"2 69224  97.2839 181.8253 0001253  80.5623 318.3874 15.61596935  4116"},{"NORAD_CAT_ID":"69225","OBJECT_NAME":"STARLINK-37770","OBJECT_ID":"2026-115Q","EPOCH":"2026-06-13T14:00:01.999872","TLE_LINE1":"1 69225U 26115Q   26164.58335648 -.02597738  00000-0 -20228-1 0  9998","TLE_LINE2":"2 69225  97.2834 181.8742 0001738  93.2820  59.3742 15.74874615  4117"},{"NORAD_CAT_ID":"69226","OBJECT_NAME":"STARLINK-37736","OBJECT_ID":"2026-115R","EPOCH":"2026-06-13T14:00:01.999872","TLE_LINE1":"1 69226U 26115R   26164.58335648 -.02612307  00000-0 -22293-1 0  9993","TLE_LINE2":"2 69226  97.2836 181.8706 0001852  94.6120  49.0329 15.72776288  4117"},{"NORAD_CAT_ID":"69227","OBJECT_NAME":"STARLINK-37737","OBJECT_ID":"2026-115S","EPOCH":"2026-06-13T14:00:01.999872","TLE_LINE1":"1 69227U 26115S   26164.58335648 -.02553738  00000-0 -19864-1 0  9996","TLE_LINE2":"2 69227  97.2837 181.8814 0001721  96.0284  73.7490 15.75456717  4131"},{"NORAD_CAT_ID":"69228","OBJECT_NAME":"STARLINK-37618","OBJECT_ID":"2026-115T","EPOCH":"2026-06-13T14:00:01.999872","TLE_LINE1":"1 69228U 26115T   26164.58335648 -.02395408  00000-0 -35533-1 0  9996","TLE_LINE2":"2 69228  97.2840 181.8282 0001456  85.5312 311.9649 15.58758467  4114"},{"NORAD_CAT_ID":"69229","OBJECT_NAME":"STARLINK-37679","OBJECT_ID":"2026-115U","EPOCH":"2026-06-13T14:00:01.999872","TLE_LINE1":"1 69229U 26115U   26164.58335648 -.02551211  00000-0 -36031-1 0  9997","TLE_LINE2":"2 69229  97.2838 181.8274 0001707  73.6964 331.6484 15.60285100  4111"},{"NORAD_CAT_ID":"69230","OBJECT_NAME":"STARLINK-37746","OBJECT_ID":"2026-115V","EPOCH":"2026-06-13T14:00:01.999872","TLE_LINE1":"1 69230U 26115V   26164.58335648 -.02517604  00000-0 -38587-1 0  9995","TLE_LINE2":"2 69230  97.2844 181.8182 0001247  97.2356 275.8729 15.58094689  4112"},{"NORAD_CAT_ID":"69231","OBJECT_NAME":"STARLINK-37557","OBJECT_ID":"2026-115W","EPOCH":"2026-06-13T14:00:01.999872","TLE_LINE1":"1 69231U 26115W   26164.58335648 -.01384117  00000-0 -27347-1 0  9998","TLE_LINE2":"2 69231  97.2844 181.7664 0002085  99.6453 160.4758 15.50183005  4116"},{"NORAD_CAT_ID":"69232","OBJECT_NAME":"STARLINK-37745","OBJECT_ID":"2026-115X","EPOCH":"2026-06-13T14:00:01.999872","TLE_LINE1":"1 69232U 26115X   26164.58335648 -.02519808  00000-0 -19630-1 0  9993","TLE_LINE2":"2 69232  97.2840 181.8992 0001579  85.2602 127.1691 15.75366630  4112"},{"NORAD_CAT_ID":"69233","OBJECT_NAME":"STARLINK-37739","OBJECT_ID":"2026-115Y","EPOCH":"2026-06-13T14:00:01.999872","TLE_LINE1":"1 69233U 26115Y   26164.58335648 -.02558888  00000-0 -37871-1 0  9992","TLE_LINE2":"2 69233  97.2842 181.8112 0001189 106.6632 248.1495 15.59083316  4112"},{"NORAD_CAT_ID":"69234","OBJECT_NAME":"STARLINK-37755","OBJECT_ID":"2026-115Z","EPOCH":"2026-06-13T13:46:58.889280","TLE_LINE1":"1 69234U 26115Z   26164.57429270  .00118692  00000-0  78461-3 0  9990","TLE_LINE2":"2 69234  97.2828 181.8229 0001291 105.1898 254.9510 15.75219980  4117"},{"NORAD_CAT_ID":"69235","OBJECT_NAME":"TJS-24","OBJECT_ID":"2026-116A","EPOCH":"2026-06-13T15:46:22.493856","TLE_LINE1":"1 69235U 26116A   26164.65720479  .00000000  00000-0  00000-0 0  9990","TLE_LINE2":"2 69235   0.0129 343.5852 0000373  80.7170 164.5389  1.00267777   198"},{"NORAD_CAT_ID":"69236","OBJECT_NAME":"CZ-7A R/B","OBJECT_ID":"2026-116B","EPOCH":"2026-05-26T21:56:07.164384","TLE_LINE1":"1 69236U 26116B   26146.91397181  .00049818 -36870-6  75664-4 0  9993","TLE_LINE2":"2 69236  19.5460 149.3523 7251658 178.3837 187.0911  2.38711174    24"}]}