OBJECT_NAME,OBJECT_ID,EPOCH,MEAN_MOTION,ECCENTRICITY,INCLINATION,RA_OF_ASC_NODE,ARG_OF_PERICENTER,MEAN_ANOMALY,EPHEMERIS_TYPE,CLASSIFICATION_TYPE,NORAD_CAT_ID,ELEMENT_SET_NO,REV_AT_EPOCH,BSTAR,MEAN_MOTION_DOT,MEAN_MOTION_DDOT
STARLINK-37724,2026-115H,2026-06-13T14:00:01.999872,15.72124274,.00017296,97.2837,181.8594,86.3907,30.6857,0,U,69218,999,411,-.22616413E-1,-.2581815E-1,0
STARLINK-37758,2026-115J,2026-06-13T14:00:01.999872,15.72137936,.00017606,97.2837,181.8666,89.3345,45.2132,0,U,69219,999,411,-.2187947E-1,-.2509652E-1,0
STARLINK-37201,2026-115K,2026-06-13T14:00:01.999872,15.72288956,.00017204,97.2836,181.8649,89.3819,39.9222,0,U,69220,999,411,-.22567908E-1,-.2592765E-1,0
STARLINK-37728,2026-115L,2026-06-13T14:00:01.999872,15.70602999,.00017261,97.2834,181.8659,85.5724,45.6288,0,U,69221,999,411,-.24462611E-1,-.2613529E-1,0
STARLINK-37760,2026-115M,2026-06-13T14:00:01.999872,15.73940245,.00017444,97.2834,181.8680,91.6929,44.1284,0,U,69222,999,411,-.21226313E-1,-.2614795E-1,0
STARLINK-37759,2026-115N,2026-06-13T14:00:01.999872,15.60120225,.00012587,97.2846,181.8247,99.1620,289.9260,0,U,69223,999,411,-.34137325E-1,-.2420484E-1,0
STARLINK-37725,2026-115P,2026-06-13T14:00:01.999872,15.61596935,.0001253,97.2839,181.8253,80.5623,318.3874,0,U,69224,999,411,-.34131411E-1,-.254335E-1,0
STARLINK-37770,2026-115Q,2026-06-13T14:00:01.999872,15.74874615,.00017383,97.2834,181.8742,93.2820,59.3742,0,U,69225,999,411,-.20227589E-1,-.2597738E-1,0
STARLINK-37736,2026-115R,2026-06-13T14:00:01.999872,15.72776288,.00018522,97.2836,181.8706,94.6120,49.0329,0,U,69226,999,411,-.22292675E-1,-.2612307E-1,0
STARLINK-37737,2026-115S,2026-06-13T14:00:01.999872,15.75456717,.00017206,97.2837,181.8814,96.0284,73.7490,0,U,69227,999,413,-.19863523E-1,-.2553738E-1,0
STARLINK-37618,2026-115T,2026-06-13T14:00:01.999872,15.58758467,.0001456,97.2840,181.8282,85.5312,311.9649,0,U,69228,999,411,-.35532537E-1,-.2395408E-1,0
STARLINK-37679,2026-115U,2026-06-13T14:00:01.999872,15.60285100,.0001707,97.2838,181.8274,73.6964,331.6484,0,U,69229,999,411,-.36031043E-1,-.2551211E-1,0
STARLINK-37746,2026-115V,2026-06-13T14:00:01.999872,15.58094689,.00012468,97.2844,181.8182,97.2356,275.8729,0,U,69230,999,411,-.38586993E-1,-.2517604E-1,0
STARLINK-37557,2026-115W,2026-06-13T14:00:01.999872,15.50183005,.00020855,97.2844,181.7664,99.6453,160.4758,0,U,69231,999,411,-.27346943E-1,-.1384117E-1,0
STARLINK-37745,2026-115X,2026-06-13T14:00:01.999872,15.75366630,.00015787,97.2840,181.8992,85.2602,127.1691,0,U,69232,999,411,-.19630167E-1,-.2519808E-1,0
STARLINK-37739,2026-115Y,2026-06-13T14:00:01.999872,15.59083316,.00011892,97.2842,181.8112,106.6632,248.1495,0,U,69233,999,411,-.37870935E-1,-.2558888E-1,0
STARLINK-37755,2026-115Z,2026-06-13T13:46:58.889280,15.75219980,.00012914,97.2828,181.8229,105.1898,254.9510,0,U,69234,999,411,.78460738E-3,.118692E-2,0
TJS-24,2026-116A,2026-06-13T15:46:22.493856,1.00267777,.00003728,0.0129,343.5852,80.7170,164.5389,0,U,69235,999,19,0,0,0
CZ-7A R/B,2026-116B,2026-05-26T21:56:07.164384,2.38711174,.72516577,19.5460,149.3523,178.3837,187.0911,0,U,69236,999,2,.75663565E-4,.49818E-3,-.368698E-6
STARLINK-37665,2026-117A,2026-06-13T13:57:02.923776,15.82030611,.00010776,53.1590,261.7225,52.2342,307.8779,0,U,69238,999,240,.97540741E-3,.20735E-2,0
STARLINK-37558,2026-117B,2026-06-13T13:55:40.918944,15.82021976,.00011152,53.1588,261.7161,37.0616,323.0484,0,U,69239,999,240,.8700882E-3,.184315E-2,0
STARLINK-37680,2026-117C,2026-06-13T13:53:36.439872,15.82033029,.00012031,53.1593,261.7067,52.7815,307.3318,0,U,69240,999,240,.96009487E-3,.204028E-2,0
STARLINK-37742,2026-117D,2026-06-13T13:51:02.562336,15.82010879,.00013063,53.1593,261.6952,55.7352,304.3795,0,U,69241,999,240,.78786274E-3,.166395E-2,0
STARLINK-37718,2026-117E,2026-06-13T13:49:06.597984,15.82053518,.00026499,53.1591,261.6859,9.2853,350.8219,0,U,69242,999,240,.62775106E-3,.132187E-2,0
STARLINK-37735,2026-117F,2026-06-13T13:49:06.550464,15.82046825,.00005549,53.1589,261.6852,80.5518,279.5568,0,U,69243,999,240,.12387159E-2,.265517E-2,0
STARLINK-37757,2026-117G,2026-06-13T13:45:39.532608,15.82056342,.00017146,53.1588,261.6687,37.5817,322.5326,0,U,69244,999,240,.12204266E-2,.261575E-2,0
STARLINK-37767,2026-117H,2026-06-13T13:39:30.909600,15.82029691,.00011811,53.1588,261.6402,116.7363,243.3781,0,U,69245,999,240,.81869329E-3,.173224E-2,0
STARLINK-35759,2026-117J,2026-06-13T13:38:31.692768,15.82055168,.00014354,53.1586,261.6358,37.6482,322.4641,0,U,69246,999,240,.11453371E-2,.244948E-2,0
STARLINK-37238,2026-117K,2026-06-13T13:32:08.008512,15.82079483,.00009171,53.1585,261.6040,87.0635,273.0494,0,U,69247,999,240,.12953887E-2,.278539E-2,0
STARLINK-37412,2026-117L,2026-06-13T13:27:17.081568,15.82072426,.00014388,53.1587,261.5815,68.9817,291.1360,0,U,69248,999,240,.14461021E-2,.312145E-2,0
